NORAD_CAT_ID,OBJECT_NAME,OBJECT_TYPE,EPOCH,MEAN_MOTION,ECCENTRICITY,INCLINATION,RA_OF_ASC_NODE,ARG_OF_PERICENTER,MEAN_ANOMALY,BSTAR,MEAN_MOTION_DOT,MEAN_MOTION_DDOT,TLE_LINE0,TLE_LINE1,TLE_LINE2,SEMIMAJOR_AXIS,PERIOD,APOGEE,PERIGEE,DECAYED
52311.0,STARLINK-3750,PAYLOAD,2022-06-20 12:00:00,15.73232501,0.0003818,53.2154,78.7689,2.8401,139.2332,-0.00069877,-0.00097744,0.0,0 STARLINK-3750,1 52311U 22041BC  22171.50001157 -.00097744  00000-0 -69877-3 0  9996,2 52311  53.2154  78.7689 0003818   2.8401 139.2332 15.73232501 10647,6727.803000000001,91.531,352.236,347.099,0.0
52311.0,STARLINK-3750,PAYLOAD,2022-06-20 14:00:01,15.73186697,0.0003774,53.2153,78.3561,3.5846,250.737,-0.00020703,-0.00029573,0.0,0 STARLINK-3750,1 52311U 22041BC  22171.58334491 -.00029573  00000-0 -20703-3 0  9994,2 52311  53.2153  78.3561 0003774   3.5846 250.7370 15.73186697  1301,6727.933000000001,91.534,352.337,347.259,0.0
52311.0,STARLINK-3750,PAYLOAD,2022-06-20 22:00:00,15.73178319,0.0003865,53.2152,76.7077,6.5152,336.7048,0.00013095,0.00017783,0.0,0 STARLINK-3750,1 52311U 22041BC  22171.91667824  .00017783  00000-0  13095-3 0  9994,2 52311  53.2152  76.7077 0003865   6.5152 336.7048 15.73178319 10701,6727.956999999999,91.534,352.422,347.222,0.0
52311.0,STARLINK-3750,PAYLOAD,2022-06-21 14:00:01,15.73180163,0.0003699,53.2147,73.4072,4.0318,157.1211,0.00041853,0.00058493,0.0,0 STARLINK-3750,1 52311U 22041BC  22172.58334491  .00058493  00000-0  41853-3 0  9995,2 52311  53.2147  73.4072 0003699   4.0318 157.1211 15.73180163 10815,6727.9519999999975,91.534,352.305,347.32800000000015,0.0
52311.0,STARLINK-3750,PAYLOAD,2022-06-21 22:00:00,15.73219894,0.0003845,53.2151,71.7591,6.7219,243.3494,-0.00046975,-0.00066122,0.0,0 STARLINK-3750,1 52311U 22041BC  22172.91667824 -.00066122  00000-0 -46975-3 0  9991,2 52311  53.2151  71.7591 0003845   6.7219 243.3494 15.73219894 10869,6727.8380000000025,91.532,352.29,347.117,0.0
52311.0,STARLINK-3750,PAYLOAD,2022-06-22 06:00:00,15.73190227,0.000402,53.2151,70.1101,6.0814,332.9037,0.00016292,0.00022301,0.0,0 STARLINK-3750,1 52311U 22041BC  22173.25001157  .00022301  00000-0  16292-3 0  9998,2 52311  53.2151  70.1101 0004020   6.0814 332.9037 15.73190227 10911,6727.9230000000025,91.534,352.49300000000005,347.083,0.0
52311.0,STARLINK-3750,PAYLOAD,2022-06-22 14:00:01,15.73170305,0.0003708,53.2153,68.4585,5.6549,62.2811,0.00037881,0.00052824,0.0,0 STARLINK-3750,1 52311U 22041BC  22173.58334491  .00052824  00000-0  37881-3 0  9994,2 52311  53.2153  68.4585 0003708   5.6549  62.2811 15.73170305  1302,6727.98,91.535,352.34,347.35,0.0
52311.0,STARLINK-3750,PAYLOAD,2022-06-22 22:00:00,15.73188872,0.0003916,53.2153,66.8105,6.2498,150.5682,8.5084e-05,0.00011332,0.0,0 STARLINK-3750,1 52311U 22041BC  22173.91667824  .00011332  00000-0  85084-4 0  9998,2 52311  53.2153  66.8105 0003916   6.2498 150.5682 15.73188872 11028,6727.927,91.534,352.427,347.157,0.0
52311.0,STARLINK-3750,PAYLOAD,2022-06-23 06:00:00,15.73259029,0.000394,53.2146,65.1614,4.5539,241.213,-0.00053784,-0.0007566,0.0,0 STARLINK-3750,1 52311U 22041BC  22174.25001157 -.00075660  00000-0 -53784-3 0  9994,2 52311  53.2146  65.1614 0003940   4.5539 241.2130 15.73259029 11075,6727.727,91.53,352.24300000000005,346.941,0.0
52311.0,STARLINK-3750,PAYLOAD,2022-06-23 14:00:01,15.73198938,0.0003662,53.2149,63.5098,4.2983,330.4439,0.00013832,0.00018837,0.0,0 STARLINK-3750,1 52311U 22041BC  22174.58334491  .00018837  00000-0  13832-3 0  9991,2 52311  53.2149  63.5098 0003662   4.2983 330.4439 15.73198938  1306,6727.898,91.533,352.227,347.2990000000001,0.0
52311.0,STARLINK-3750,PAYLOAD,2022-06-23 22:00:00,15.73179975,0.0003845,53.2153,61.8621,7.2892,56.3831,8.607299999999999e-05,0.00011466,0.0,0 STARLINK-3750,1 52311U 22041BC  22174.91667824  .00011466  00000-0  86073-4 0  9996,2 52311  53.2153  61.8621 0003845   7.2892  56.3831 15.73179975 11186,6727.9519999999975,91.534,352.404,347.23,0.0
52311.0,STARLINK-3750,PAYLOAD,2022-06-24 14:00:01,15.7323081,0.0003714,53.2155,58.5613,7.0,234.5518,-0.00017298,-0.00024871,0.0,0 STARLINK-3750,1 52311U 22041BC  22175.58334491 -.00024871  00000-0 -17298-3 0  9999,2 52311  53.2155  58.5613 0003714   7.0000 234.5518 15.73230810 11285,6727.807,91.531,352.171,347.1740000000001,0.0
52311.0,STARLINK-3750,PAYLOAD,2022-06-24 22:00:01,15.73198646,0.0003925,53.216,56.9129,6.7491,323.8275,0.00017718,0.00024322,0.0,0 STARLINK-3750,1 52311U 22041BC  22175.91668981  .00024322  00000-0  17718-3 0  9996,2 52311  53.2160  56.9129 0003925   6.7491 323.8275 15.73198646  1303,6727.899,91.533,352.405,347.12300000000016,0.0
52311.0,STARLINK-3750,PAYLOAD,2022-06-25 14:00:01,15.73164218,0.0003645,53.2151,53.613,3.1105,145.253,0.00059724,0.00083932,0.0,0 STARLINK-3750,1 52311U 22041BC  22176.58334491  .00083932  00000-0  59724-3 0  9991,2 52311  53.2151  53.6130 0003645   3.1105 145.2530 15.73164218  1309,6727.996999999999,91.535,352.315,347.41,0.0
52311.0,STARLINK-3750,PAYLOAD,2022-06-25 22:00:00,15.73243833,0.0003838,53.2153,51.9655,2.6378,234.6458,-0.0001851,-0.0002658,0.0,0 STARLINK-3750,1 52311U 22041BC  22176.91667824 -.00026580  00000-0 -18510-3 0  9993,2 52311  53.2153  51.9655 0003838   2.6378 234.6458 15.73243833 11498,6727.77,91.531,352.217,347.05300000000005,0.0
52311.0,STARLINK-3750,PAYLOAD,2022-06-26 14:00:01,15.73204563,0.0003724,53.2156,48.6643,3.2607,52.0319,0.00015229,0.00020813,0.0,0 STARLINK-3750,1 52311U 22041BC  22177.58335648  .00020813  00000-0  15229-3 0  9998,2 52311  53.2156  48.6643 0003724   3.2607  52.0319 15.73204563  1301,6727.882,91.533,352.25300000000016,347.242,0.0
52311.0,STARLINK-3750,PAYLOAD,2022-06-26 20:00:01,15.73224093,0.0003913,53.2155,47.4288,4.9934,26.9221,-0.00014355,-0.00020751,0.0,0 STARLINK-3750,1 52311U 22041BC  22177.83334491 -.00020751  00000-0 -14355-3 0  9993,2 52311  53.2155  47.4288 0003913   4.9934  26.9221 15.73224093 11643,6727.826,91.532,352.324,347.059,0.0
52311.0,STARLINK-3750,PAYLOAD,2022-06-26 22:00:00,15.73234189,0.0003981,53.2153,47.0169,5.2435,138.9066,-0.00036093,-0.00051071,0.0,0 STARLINK-3750,1 52311U 22041BC  22177.91667824 -.00051071  00000-0 -36093-3 0  9993,2 52311  53.2153  47.0169 0003981   5.2435 138.9066 15.73234189  1300,6727.7980000000025,91.531,352.341,346.9840000000001,0.0
52311.0,STARLINK-3750,PAYLOAD,2022-06-27 06:00:00,15.72999568,0.0003698,53.2164,45.3607,5.3029,227.7269,0.0021939,0.00316479,0.0,0 STARLINK-3750,1 52311U 22041BC  22178.25001157  .00316479  00000-0  21939-2 0  9998,2 52311  53.2164  45.3607 0003698   5.3029 227.7269 15.72999568 11700,6728.467,91.545,352.82,347.843,0.0
52311.0,STARLINK-3750,PAYLOAD,2022-06-27 14:00:01,15.73191978,0.000376,53.2149,43.716,10.5126,311.4376,0.00054019,0.00075874,0.0,0 STARLINK-3750,1 52311U 22041BC  22178.58334491  .00075874  00000-0  54019-3 0  9991,2 52311  53.2149  43.7160 0003760  10.5126 311.4376 15.73191978  1300,6727.918000000002,91.534,352.31300000000016,347.25300000000016,0.0
52311.0,STARLINK-3750,PAYLOAD,2022-06-27 22:00:00,15.73233561,0.0003948,53.2151,42.0687,8.4064,42.4881,-0.00046658,-0.00065723,0.0,0 STARLINK-3750,1 52311U 22041BC  22178.91667824 -.00065723  00000-0 -46658-3 0  9991,2 52311  53.2151  42.0687 0003948   8.4064  42.4881 15.73233561 11818,6727.799,91.531,352.321,347.0080000000001,0.0
52311.0,STARLINK-3750,PAYLOAD,2022-06-28 14:00:01,15.731520000000002,0.0003795,53.2153,38.7674,6.3298,222.4012,0.00015803,0.00021574,0.0,0 STARLINK-3750,1 52311U 22041BC  22179.58334491  .00021574  00000-0  15803-3 0  9998,2 52311  53.2153  38.7674 0003795   6.3298 222.4012 15.73152000 11919,6728.031999999997,91.536,352.45,347.344,0.0
52311.0,STARLINK-3750,PAYLOAD,2022-06-28 22:00:00,15.7316044,0.0004079,53.215,37.12,6.6199,310.9938,0.00017916,0.00024561,0.0,0 STARLINK-3750,1 52311U 22041BC  22179.91667824  .00024561  00000-0  17916-3 0  9990,2 52311  53.2150  37.1200 0004079   6.6199 310.9938 15.73160440  1302,6728.0080000000025,91.535,352.617,347.129,0.0
52311.0,STARLINK-3750,PAYLOAD,2022-06-29 14:00:01,15.73197663,0.000378,53.2148,33.8189,7.9382,127.48,0.00038558,0.0005385,0.0,0 STARLINK-3750,1 52311U 22041BC  22180.58334491  .00053850  00000-0  38558-3 0  9994,2 52311  53.2148  33.8189 0003780   7.9382 127.4800 15.73197663  1300,6727.901999999999,91.533,352.31,347.224,0.0
52311.0,STARLINK-3750,PAYLOAD,2022-06-29 22:00:00,15.73220932,0.000409,53.2148,32.1715,7.604,216.764,0.00025919,0.00035955,0.0,0 STARLINK-3750,1 52311U 22041BC  22180.91667824  .00035955  00000-0  25919-3 0  9993,2 52311  53.2148  32.1715 0004090   7.6040 216.7640 15.73220932  1300,6727.835,91.532,352.452,346.949,0.0
52311.0,STARLINK-3750,PAYLOAD,2022-06-30 14:00:01,15.7321495,0.0003903,53.2153,28.8699,5.7124,36.6033,3.0226e-05,3.624e-05,0.0,0 STARLINK-3750,1 52311U 22041BC  22181.58334491  .00003624  00000-0  30226-4 0  9994,2 52311  53.2153  28.8699 0003903   5.7124  36.6033 15.73214950  1301,6727.853,91.532,352.343,347.092,0.0
52311.0,STARLINK-3750,PAYLOAD,2022-06-30 22:00:00,15.73175686,0.0004187,53.2153,27.2215,4.1488,127.127,-4.1577e-05,-6.452e-05,0.0,0 STARLINK-3750,1 52311U 22041BC  22181.91667824 -.00006452  00000-0 -41577-4 0  9995,2 52311  53.2153  27.2215 0004187   4.1488 127.1270 15.73175686  1300,6727.964,91.535,352.646,347.01199999999994,0.0
52311.0,STARLINK-3750,PAYLOAD,2022-07-01 14:00:01,15.73203382,0.0003888,53.2149,23.9211,4.3473,304.7426,0.00026222,0.00036355,0.0,0 STARLINK-3750,1 52311U 22041BC  22182.58334491  .00036355  00000-0  26222-3 0  9992,2 52311  53.2149  23.9211 0003888   4.3473 304.7426 15.73203382  1308,6727.886,91.533,352.366,347.135,0.0
52311.0,STARLINK-3750,PAYLOAD,2022-07-01 22:00:00,15.73212925,0.0004176,53.215,22.2736,4.1164,33.9178,0.00022929,0.00031708,0.0,0 STARLINK-3750,1 52311U 22041BC  22182.91667824  .00031708  00000-0  22929-3 0  9995,2 52311  53.2150  22.2736 0004176   4.1164  33.9178 15.73212925 12445,6727.858,91.532,352.533,346.914,0.0
